{
  "links" : {
    "next" : "https://api.nasa.gov/neo/rest/v1/neo/browse?page=45&size=20&api_key=jqAGvNAwUIBu4fl9FSOjdm3V4F7hIglRzI6pdX9d",
    "prev" : "https://api.nasa.gov/neo/rest/v1/neo/browse?page=43&size=20&api_key=jqAGvNAwUIBu4fl9FSOjdm3V4F7hIglRzI6pdX9d",
    "self" : "https://api.nasa.gov/neo/rest/v1/neo/browse?page=44&size=20&api_key=jqAGvNAwUIBu4fl9FSOjdm3V4F7hIglRzI6pdX9d"
  },
  "page" : {
    "size" : 20,
    "total_elements" : 20750,
    "total_pages" : 1038,
    "number" : 44
  },
  "near_earth_objects" : [ {
    "links" : {
      "self" : "https://api.nasa.gov/neo/rest/v1/neo/3408584?api_key=jqAGvNAwUIBu4fl9FSOjdm3V4F7hIglRzI6pdX9d"
    },
    "neo_reference_id" : "3408584",
    "name" : "(2008 GQ3)",
    "designation" : "2008 GQ3",
    "nasa_jpl_url" : "http://ssd.jpl.nasa.gov/sbdb.cgi?sstr=3408584",
    "absolute_magnitude_h" : 18.9,
    "estimated_diameter" : {
      "kilometers" : {
        "estimated_diameter_min" : 0.4411182,
        "estimated_diameter_max" : 0.9863702813
      },
      "meters" : {
        "estimated_diameter_min" : 441.1181999969,
        "estimated_diameter_max" : 986.3702813054
      },
      "miles" : {
        "estimated_diameter_min" : 0.2740980571,
        "estimated_diameter_max" : 0.6129018881
      },
      "feet" : {
        "estimated_diameter_min" : 1447.2382352778,
        "estimated_diameter_max" : 3236.1230737181
      }
    },
    "is_potentially_hazardous_asteroid" : false,
    "close_approach_data" : [ {
      "close_approach_date" : "2008-03-28",
      "epoch_date_close_approach" : 1206687600000,
      "relative_velocity" : {
        "kilometers_per_second" : "22.7078719758",
        "kilometers_per_hour" : "81748.3391128264",
        "miles_per_hour" : "50795.2388226337"
      },
      "miss_distance" : {
        "astronomical" : "0.4076352872",
        "lunar" : "158.5701293945",
        "kilometers" : "60981372",
        "miles" : "37892068"
      },
      "orbiting_body" : "Earth"
    } ],
    "orbital_data" : {
      "orbit_id" : "13",
      "orbit_determination_date" : "2017-04-06 09:03:46",
      "first_observation_date" : "2008-04-07",
      "last_observation_date" : "2008-05-06",
      "data_arc_in_days" : 29,
      "observations_used" : 41,
      "orbit_uncertainty" : "8",
      "minimum_orbit_intersection" : ".112767",
      "jupiter_tisserand_invariant" : "3.377",
      "epoch_osculation" : "2454569.5",
      "eccentricity" : ".5244222185009054",
      "semi_major_axis" : "2.185474339081105",
      "inclination" : "25.47173025307853",
      "ascending_node_longitude" : "356.1947473740194",
      "orbital_period" : "1180.095064980997",
      "perihelion_distance" : "1.039363037703392",
      "perihelion_argument" : "142.1311164190308",
      "aphelion_distance" : "3.331585640458818",
      "perihelion_time" : "2454529.876761263077",
      "mean_anomaly" : "12.08747190678404",
      "mean_motion" : ".3050601690345999",
      "equinox" : "J2000",
      "orbit_class" : {
        "orbit_class_type" : "AMO",
        "orbit_class_range" : "1.017 AU < q (perihelion) < 1.3 AU",
        "orbit_class_description" : "Near-Earth asteroid orbits similar to that of 1221 Amor"
      }
    },
    "is_sentry_object" : false
  }, {
    "links" : {
      "self" : "https://api.nasa.gov/neo/rest/v1/neo/3408589?api_key=jqAGvNAwUIBu4fl9FSOjdm3V4F7hIglRzI6pdX9d"
    },
    "neo_reference_id" : "3408589",
    "name" : "(2008 GX3)",
    "designation" : "2008 GX3",
    "nasa_jpl_url" : "http://ssd.jpl.nasa.gov/sbdb.cgi?sstr=3408589",
    "absolute_magnitude_h" : 26.3,
    "estimated_diameter" : {
      "kilometers" : {
        "estimated_diameter_min" : 0.0146067964,
        "estimated_diameter_max" : 0.0326617897
      },
      "meters" : {
        "estimated_diameter_min" : 14.6067964271,
        "estimated_diameter_max" : 32.6617897446
      },
      "miles" : {
        "estimated_diameter_min" : 0.0090762397,
        "estimated_diameter_max" : 0.020295089
      },
      "feet" : {
        "estimated_diameter_min" : 47.92256199,
        "estimated_diameter_max" : 107.1581062656
      }
    },
    "is_potentially_hazardous_asteroid" : false,
    "close_approach_data" : [ {
      "close_approach_date" : "2008-04-11",
      "epoch_date_close_approach" : 1207897200000,
      "relative_velocity" : {
        "kilometers_per_second" : "9.0945118289",
        "kilometers_per_hour" : "32740.2425840401",
        "miles_per_hour" : "20343.5135100665"
      },
      "miss_distance" : {
        "astronomical" : "0.0186805514",
        "lunar" : "7.2667346001",
        "kilometers" : "2794570.75",
        "miles" : "1736465.75"
      },
      "orbiting_body" : "Earth"
    } ],
    "orbital_data" : {
      "orbit_id" : "8",
      "orbit_determination_date" : "2017-04-06 09:03:45",
      "first_observation_date" : "2008-04-08",
      "last_observation_date" : "2008-04-12",
      "data_arc_in_days" : 4,
      "observations_used" : 15,
      "orbit_uncertainty" : "8",
      "minimum_orbit_intersection" : ".0136534",
      "jupiter_tisserand_invariant" : "3.797",
      "epoch_osculation" : "2454566.5",
      "eccentricity" : ".477115537817856",
      "semi_major_axis" : "1.890243710534727",
      "inclination" : "9.543762776132173",
      "ascending_node_longitude" : "196.8675535403994",
      "orbital_period" : "949.238030152434",
      "perihelion_distance" : ".9883790659761308",
      "perihelion_argument" : "25.03345543521958",
      "aphelion_distance" : "2.792108355093322",
      "perihelion_time" : "2454585.190535938007",
      "mean_anomaly" : "352.9115851620462",
      "mean_motion" : ".3792515560530051",
      "equinox" : "J2000",
      "orbit_class" : {
        "orbit_class_type" : "APO",
        "orbit_class_range" : "a (semi-major axis) > 1.0 AU; q (perihelion) < 1.017 AU",
        "orbit_class_description" : "Near-Earth asteroid orbits which cross the Earth’s orbit similar to that of 1862 Apollo"
      }
    },
    "is_sentry_object" : false
  }, {
    "links" : {
      "self" : "https://api.nasa.gov/neo/rest/v1/neo/3408591?api_key=jqAGvNAwUIBu4fl9FSOjdm3V4F7hIglRzI6pdX9d"
    },
    "neo_reference_id" : "3408591",
    "name" : "(2008 GZ3)",
    "designation" : "2008 GZ3",
    "nasa_jpl_url" : "http://ssd.jpl.nasa.gov/sbdb.cgi?sstr=3408591",
    "absolute_magnitude_h" : 25.2,
    "estimated_diameter" : {
      "kilometers" : {
        "estimated_diameter_min" : 0.0242412481,
        "estimated_diameter_max" : 0.0542050786
      },
      "meters" : {
        "estimated_diameter_min" : 24.2412481101,
        "estimated_diameter_max" : 54.2050786336
      },
      "miles" : {
        "estimated_diameter_min" : 0.0150628086,
        "estimated_diameter_max" : 0.0336814639
      },
      "feet" : {
        "estimated_diameter_min" : 79.5316564495,
        "estimated_diameter_max" : 177.8381901842
      }
    },
    "is_potentially_hazardous_asteroid" : false,
    "close_approach_data" : [ {
      "close_approach_date" : "2008-04-10",
      "epoch_date_close_approach" : 1207810800000,
      "relative_velocity" : {
        "kilometers_per_second" : "5.8126597972",
        "kilometers_per_hour" : "20925.5752698112",
        "miles_per_hour" : "13002.3387002891"
      },
      "miss_distance" : {
        "astronomical" : "0.0516648824",
        "lunar" : "20.0976390839",
        "kilometers" : "7728956.5",
        "miles" : "4802551"
      },
      "orbiting_body" : "Earth"
    } ],
    "orbital_data" : {
      "orbit_id" : "9",
      "orbit_determination_date" : "2017-04-06 09:21:26",
      "first_observation_date" : "2008-04-08",
      "last_observation_date" : "2008-04-15",
      "data_arc_in_days" : 7,
      "observations_used" : 20,
      "orbit_uncertainty" : "8",
      "minimum_orbit_intersection" : ".0499549",
      "jupiter_tisserand_invariant" : "3.621",
      "epoch_osculation" : "2454567.5",
      "eccentricity" : ".4894333595097458",
      "semi_major_axis" : "2.06201766253831",
      "inclination" : "1.064265147283184",
      "ascending_node_longitude" : "34.36233341516558",
      "orbital_period" : "1081.526084560837",
      "perihelion_distance" : "1.052797430593752",
      "perihelion_argument" : "168.2319337455432",
      "aphelion_distance" : "3.071237894482869",
      "perihelion_time" : "2454568.124841180213",
      "mean_anomaly" : "359.7920135001016",
      "mean_motion" : ".3328629842027166",
      "equinox" : "J2000",
      "orbit_class" : {
        "orbit_class_type" : "AMO",
        "orbit_class_range" : "1.017 AU < q (perihelion) < 1.3 AU",
        "orbit_class_description" : "Near-Earth asteroid orbits similar to that of 1221 Amor"
      }
    },
    "is_sentry_object" : false
  } ]
}